STARLINK-1612_new
1 16164C 20057AZ  21326.07033377 -.00013349  00000-0 -89429-3 0  3260
2 16164  53.0517 118.4320 0001478  77.1797 176.7782 15.06415281    13
STARLINK-1612_old
1 26164C 20057AZ  21325.01825696  .00003558  00000-0  23835-3 0  3253
2 26164  53.0512 123.1551 0001525  78.5585 226.7887 15.06396532    19
